NORAD_CAT_ID,OBJECT_NAME,OBJECT_TYPE,EPOCH,MEAN_MOTION,ECCENTRICITY,INCLINATION,RA_OF_ASC_NODE,ARG_OF_PERICENTER,MEAN_ANOMALY,BSTAR,MEAN_MOTION_DOT,MEAN_MOTION_DDOT,TLE_LINE0,TLE_LINE1,TLE_LINE2,SEMIMAJOR_AXIS,PERIOD,APOGEE,PERIGEE,DECAYED
53283.0,STARLINK-4175,PAYLOAD,2023-03-08 11:16:06,15.08875684,0.0001043,53.2174,69.7334,85.9542,274.1569,0.0025938,0.00041275,0.0,0 STARLINK-4175,1 53283U 22086AT  23067.46952203  .00041275  00000-0  25938-2 0  9996,2 53283  53.2174  69.7334 0001043  85.9542 274.1569 15.08875684 35383,6917.771,95.435,540.358,538.915,0.0
53283.0,STARLINK-4175,PAYLOAD,2023-03-08 17:37:39,15.0885919,9.43e-05,53.2185,68.5433,99.6412,260.4687,0.0010906,0.00017121,0.0,0 STARLINK-4175,1 53283U 22086AT  23067.73448146  .00017121  00000-0  10906-2 0  9994,2 53283  53.2185  68.5433 0000943  99.6412 260.4687 15.08859190 35426,6917.822,95.436,540.339,539.034,0.0
53283.0,STARLINK-4175,PAYLOAD,2023-03-09 06:20:44,15.08860041,0.000132,53.2176,66.1642,109.1307,250.9828,0.0016513,0.00026105,0.0,0 STARLINK-4175,1 53283U 22086AT  23068.26440095  .00026105  00000-0  16513-2 0  9990,2 53283  53.2176  66.1642 0001320 109.1307 250.9828 15.08860041 35509,6917.819,95.436,540.597,538.771,0.0
53283.0,STARLINK-4175,PAYLOAD,2023-03-10 06:11:30,15.08867164,0.0001092,53.2183,61.704,89.0801,271.0316,0.0023481,0.00037308,0.0,0 STARLINK-4175,1 53283U 22086AT  23069.25799703  .00037308  00000-0  23481-2 0  9992,2 53283  53.2183  61.7040 0001092  89.0801 271.0316 15.08867164 35656,6917.797,95.436,540.418,538.907,0.0
53283.0,STARLINK-4175,PAYLOAD,2023-03-10 09:22:17,15.08869838,0.0001092,53.2186,61.1088,85.9404,274.1713,0.0013713,0.00021621,0.0,0 STARLINK-4175,1 53283U 22086AT  23069.39047494  .00021621  00000-0  13713-2 0  9998,2 53283  53.2186  61.1088 0001092  85.9404 274.1713 15.08869838 35676,6917.789,95.436,540.41,538.899,0.0
53283.0,STARLINK-4175,PAYLOAD,2023-03-11 06:02:18,15.08849119,9.38e-05,53.2188,57.2448,111.254,248.8553,0.0019448,0.00030807,0.0,0 STARLINK-4175,1 53283U 22086AT  23070.25160235  .00030807  00000-0  19448-2 0  9991,2 53283  53.2188  57.2448 0000938 111.2540 248.8553 15.08849119 35801,6917.853,95.437,540.366,539.069,0.0
53283.0,STARLINK-4175,PAYLOAD,2023-03-11 10:48:27,15.0886341,0.0001232,53.2188,56.3527,113.1891,246.9231,0.0020079,0.00031833,0.0,0 STARLINK-4175,1 53283U 22086AT  23070.45031965  .00031833  00000-0  20079-2 0  9992,2 53283  53.2188  56.3527 0001232 113.1891 246.9231 15.08863410 36002,6917.809,95.436,540.526,538.822,0.0
53283.0,STARLINK-4175,PAYLOAD,2023-03-11 23:31:33,15.08838088,0.000141,53.2196,53.9736,108.4732,251.6414,0.00061981,9.59e-05,0.0,0 STARLINK-4175,1 53283U 22086AT  23070.98024606  .00009590  00000-0  61981-3 0  9997,2 53283  53.2196  53.9736 0001410 108.4732 251.6414 15.08838088 35913,6917.886,95.438,540.727,538.776,0.0
53283.0,STARLINK-4175,PAYLOAD,2023-03-12 10:39:15,15.08855963,0.0001303,53.2194,51.892,105.8969,254.2166,0.0018002,0.00028491,0.0,0 STARLINK-4175,1 53283U 22086AT  23071.44392640  .00028491  00000-0  18002-2 0  9991,2 53283  53.2194  51.8920 0001303 105.8969 254.2166 15.08855963 36158,6917.832,95.437,540.598,538.795,0.0
53283.0,STARLINK-4175,PAYLOAD,2023-03-12 23:22:20,15.08847244,0.0001401,53.2185,49.5145,106.4185,253.6961,0.0014153,0.00022313,0.0,0 STARLINK-4175,1 53283U 22086AT  23071.97384941  .00022313  00000-0  14153-2 0  9994,2 53283  53.2185  49.5145 0001401 106.4185 253.6961 15.08847244 36066,6917.858,95.437,540.692,538.754,0.0
53283.0,STARLINK-4175,PAYLOAD,2023-03-13 07:19:16,15.08860801,0.0001257,53.2185,48.0282,93.8941,266.2195,0.0016228,0.00025648,0.0,0 STARLINK-4175,1 53283U 22086AT  23072.30504633  .00025648  00000-0  16228-2 0  9993,2 53283  53.2185  48.0282 0001257  93.8941 266.2195 15.08860801 36287,6917.817,95.436,540.551,538.812,0.0
53283.0,STARLINK-4175,PAYLOAD,2023-03-13 21:37:44,15.08847552,0.0001877,53.2183,45.3509,87.4356,272.6851,0.001361,0.00021443,0.0,0 STARLINK-4175,1 53283U 22086AT  23072.90121042  .00021443  00000-0  13610-2 0  9999,2 53283  53.2183  45.3509 0001877  87.4356 272.6851 15.08847552 36372,6917.857,95.437,541.021,538.424,0.0
53283.0,STARLINK-4175,PAYLOAD,2023-03-14 05:34:40,15.08847283,0.0001176,53.2188,43.862,121.8849,238.2258,0.0012376,0.00019467,0.0,0 STARLINK-4175,1 53283U 22086AT  23073.23240889  .00019467  00000-0  12376-2 0  9998,2 53283  53.2188  43.8620 0001176 121.8849 238.2258 15.08847283 36253,6917.858,95.437,540.537,538.91,0.0
53283.0,STARLINK-4175,PAYLOAD,2023-03-14 08:45:26,15.08848362,0.0001192,53.218,43.2673,106.9967,253.1156,0.00075259,0.00011713,0.0,0 STARLINK-4175,1 53283U 22086AT  23073.36488891  .00011713  00000-0  75259-3 0  9995,2 53283  53.2180  43.2673 0001192 106.9967 253.1156 15.08848362 36443,6917.855,95.437,540.544,538.895,0.0
53283.0,STARLINK-4175,PAYLOAD,2023-03-14 15:06:59,15.08846643,0.0001307,53.2177,42.078,96.6346,263.4795,0.00064913,0.0001006,0.0,0 STARLINK-4175,1 53283U 22086AT  23073.62985013  .00010060  00000-0  64913-3 0  9991,2 53283  53.2177  42.0780 0001307  96.6346 263.4795 15.08846643 36318,6917.86,95.437,540.629,538.821,0.0
53283.0,STARLINK-4175,PAYLOAD,2023-03-15 03:50:03,15.08870211,0.0001116,53.2156,39.6998,96.6608,263.4511,0.0010061,0.00015774,0.0,0 STARLINK-4175,1 53283U 22086AT  23074.15976132  .00015774  00000-0  10061-2 0  9993,2 53283  53.2156  39.6998 0001116  96.6608 263.4511 15.08870211 36399,6917.788,95.436,540.425,538.881,0.0
53283.0,STARLINK-4175,PAYLOAD,2023-03-15 07:00:49,15.08891093,0.0001334,53.2173,39.1056,96.2284,263.886,0.0020936,0.00033236,0.0,0 STARLINK-4175,1 53283U 22086AT  23074.29223720  .00033236  00000-0  20936-2 0  9991,2 53283  53.2173  39.1056 0001334  96.2284 263.8860 15.08891093 36411,6917.724,95.434,540.512,538.666,0.0
53283.0,STARLINK-4175,PAYLOAD,2023-03-15 21:19:17,15.08853501,0.0001664,53.217,36.4286,97.509,262.6092,0.00073486,0.00011431,0.0,0 STARLINK-4175,1 53283U 22086AT  23074.88839954  .00011431  00000-0  73486-3 0  9990,2 53283  53.2170  36.4286 0001664  97.5090 262.6092 15.08853501 36672,6917.839,95.437,540.855,538.553,0.0
53283.0,STARLINK-4175,PAYLOAD,2023-03-16 03:40:50,15.08860875,0.0001096,53.2167,35.239,83.4694,276.6423,0.00071945,0.00011187,0.0,0 STARLINK-4175,1 53283U 22086AT  23075.15335667  .00011187  00000-0  71945-3 0  9999,2 53283  53.2167  35.2390 0001096  83.4694 276.6423 15.08860875 36545,6917.817,95.436,540.44,538.923,0.0
53283.0,STARLINK-4175,PAYLOAD,2023-03-16 21:10:05,15.08841366,0.0001335,53.2176,31.9684,76.4675,283.6465,0.0012745,0.00020055,0.0,0 STARLINK-4175,1 53283U 22086AT  23075.88200486  .00020055  00000-0  12745-2 0  9995,2 53283  53.2176  31.9684 0001335  76.4675 283.6465 15.08841366 36651,6917.876,95.437,540.665,538.818,0.0
53283.0,STARLINK-4175,PAYLOAD,2023-03-17 06:42:24,15.0883568,0.000102,53.2185,30.1847,93.634,266.4768,0.00091434,0.00014292,0.0,0 STARLINK-4175,1 53283U 22086AT  23076.27944662  .00014292  00000-0  91434-3 0  9999,2 53283  53.2185  30.1847 0001020  93.6340 266.4768 15.08835680 36718,6917.894,95.438,540.464,539.053,0.0
53283.0,STARLINK-4175,PAYLOAD,2023-03-18 03:22:25,15.08843563,0.0001104,53.2172,26.3207,81.6998,278.4119,0.00039001,5.925e-05,0.0,0 STARLINK-4175,1 53283U 22086AT  23077.14056829  .00005925  00000-0  39001-3 0  9990,2 53283  53.2172  26.3207 0001104  81.6998 278.4119 15.08843563 36846,6917.869,95.437,540.498,538.971,0.0
53283.0,STARLINK-4175,PAYLOAD,2023-03-18 19:16:16,15.08840288,0.0001008,53.2179,23.3484,86.1539,273.9568,0.00028604,4.267e-05,0.0,0 STARLINK-4175,1 53283U 22086AT  23077.80297203  .00004267  00000-0  28604-3 0  9991,2 53283  53.2179  23.3484 0001008  86.1539 273.9568 15.08840288 36941,6917.88,95.438,540.442,539.047,0.0
53283.0,STARLINK-4175,PAYLOAD,2023-03-19 12:45:31,15.08851074,9.91e-05,53.2184,20.076,76.2833,283.827,0.00038548,5.854e-05,0.0,0 STARLINK-4175,1 53283U 22086AT  23078.53161023  .00005854  00000-0  38548-3 0  9993,2 53283  53.2184  20.0760 0000991  76.2833 283.8270 15.08851074 37222,6917.847,95.437,540.397,539.026,0.0
53283.0,STARLINK-4175,PAYLOAD,2023-03-19 20:42:27,15.08832142,9.76e-05,53.2189,18.5917,79.183,280.9272,-0.00017906,-3.136e-05,0.0,0 STARLINK-4175,1 53283U 22086AT  23078.86281261 -.00003136  00000-0 -17906-3 0  9994,2 53283  53.2189  18.5917 0000976  79.1830 280.9272 15.08832142 37107,6917.904,95.438,540.445,539.094,0.0
53283.0,STARLINK-4175,PAYLOAD,2023-03-20 04:39:22,15.08845871,0.0001116,53.2185,17.1042,92.0701,268.0419,9.6535e-05,1.249e-05,0.0,0 STARLINK-4175,1 53283U 22086AT  23079.19400820  .00001249  00000-0  96535-4 0  9992,2 53283  53.2185  17.1042 0001116  92.0701 268.0419 15.08845871 37153,6917.862,95.437,540.499,538.955,0.0
53283.0,STARLINK-4175,PAYLOAD,2023-03-21 04:30:09,15.08850666,0.0001006,53.2179,12.6395,85.693,274.4177,0.00022527,3.3e-05,0.0,0 STARLINK-4175,1 53283U 22086AT  23080.18760726  .00003300  00000-0  22527-3 0  9996,2 53283  53.2179  12.6395 0001006  85.6930 274.4177 15.08850666 37472,6917.848,95.437,540.409,539.017,0.0
53283.0,STARLINK-4175,PAYLOAD,2023-03-21 21:59:24,15.0883185,0.000131,53.2184,9.3751,85.0841,275.0301,6.3421e-05,7.21e-06,0.0,0 STARLINK-4175,1 53283U 22086AT  23080.91626021  .00000721  00000-0  63421-4 0  9999,2 53283  53.2184   9.3751 0001310  85.0841 275.0301 15.08831850 37582,6917.905,95.438,540.677,538.864,0.0
53283.0,STARLINK-4175,PAYLOAD,2023-03-22 04:20:57,15.08843714,0.0001268,53.2177,8.1821,93.1026,267.0112,0.00036505,5.527e-05,0.0,0 STARLINK-4175,1 53283U 22086AT  23081.18121663  .00005527  00000-0  36505-3 0  9992,2 53283  53.2177   8.1821 0001268  93.1026 267.0112 15.08843714 37455,6917.869,95.437,540.611,538.857,0.0
53283.0,STARLINK-4175,PAYLOAD,2023-03-23 04:11:44,15.08864272,0.0001567,53.2175,3.7185,74.7993,285.3172,0.0014205,0.00022407,0.0,0 STARLINK-4175,1 53283U 22086AT  23082.17481493  .00022407  00000-0  14205-2 0  9990,2 53283  53.2175   3.7185 0001567  74.7993 285.3172 15.08864272 37773,6917.806,95.436,540.755,538.587,0.0
